SENTINEL-6              
1 46984U 20086A   23202.40891061 -.00000067  00000+0 -26634-4 0  9994
2 46984  66.0392 180.3763 0008095 269.1295  90.8793 12.80930642124461
